STARLINK-1470           
1 45772U 20038AU  26068.60892913  .00054678  00000+0  19687-2 0  9990
2 45772  53.0480 174.6971 0002444  12.8687 347.2373 15.28074860317065
STARLINK-32544          
1 61917U 24207F   26068.95142514  .00041280  00000+0  15001-2 0  9995
2 61917  43.0027 280.1290 0001227 305.5012  54.5725 15.27604471 74761
